$$SOE
2460721.500000000, A.D. 2025-Feb-15 00:00:00.0000, -1.581762831750379E+08, -5.053250755871029E+08, -7.818100211769938E+06,
2460728.500000000, A.D. 2025-Feb-22 00:00:00.0000, -1.493151101694399E+08, -5.069259133311487E+08, -8.504332409263551E+06,
2460735.500000000, A.D. 2025-Mar-01 00:00:00.0000, -1.404048414847077E+08, -5.083601352716422E+08, -9.187767784029216E+06,
2460742.500000000, A.D. 2025-Mar-08 00:00:00.0000, -1.314481265203036E+08, -5.096262652618964E+08, -9.868163770390302E+06,
2460749.500000000, A.D. 2025-Mar-15 00:00:00.0000, -1.224476569762506E+08, -5.107228474074211E+08, -1.054527556130132E+07,
2460756.500000000, A.D. 2025-Mar-22 00:00:00.0000, -1.134061698701822E+08, -5.116484465852512E+08, -1.121885584420839E+07,
2460763.500000000, A.D. 2025-Mar-29 00:00:00.0000, -1.043264491858308E+08, -5.124016512700199E+08, -1.188865484760040E+07,
2460770.500000000, A.D. 2025-Apr-05 00:00:00.0000, -9.521132582633248E+07, -5.129810755310421E+08, -1.255442047207597E+07,
2460777.500000000, A.D. 2025-Apr-12 00:00:00.0000, -8.606367779711454E+07, -5.133853600985291E+08, -1.321589832122847E+07,
2460784.500000000, A.D. 2025-Apr-19 00:00:00.0000, -7.688643080422434E+07, -5.136131733819485E+08, -1.387283168766305E+07,
2460791.500000000, A.D. 2025-Apr-26 00:00:00.0000, -6.768255899497849E+07, -5.136632126450142E+08, -1.452496153610635E+07,
2460798.500000000, A.D. 2025-May-03 00:00:00.0000, -5.845508572566225E+07, -5.135342053193724E+08, -1.517202649289697E+07,
2460805.500000000, A.D. 2025-May-10 00:00:00.0000, -4.920708432589200E+07, -5.132249104494004E+08, -1.581376284416056E+07,
2460812.500000000, A.D. 2025-May-17 00:00:00.0000, -3.994167882085933E+07, -5.127341203101331E+08, -1.644990454972267E+07,
2460819.500000000, A.D. 2025-May-24 00:00:00.0000, -3.066204443512671E+07, -5.120606622537421E+08, -1.708018329344714E+07,
2460826.500000000, A.D. 2025-May-31 00:00:00.0000, -2.137140745734367E+07, -5.112034004747882E+08, -1.770432858317995E+07,
2460833.500000000, A.D. 2025-Jun-07 00:00:00.0000, -1.207304486374072E+07, -5.101612364910970E+08, -1.832206776535544E+07,
2460840.500000000, A.D. 2025-Jun-14 00:00:00.0000, -2.770286061843724E+06, -5.089331090087511E+08, -1.893312579219064E+07,
2460847.500000000, A.D. 2025-Jun-21 00:00:00.0000, 6.533484465756036E+06, -5.075179964442228E+08, -1.953722512075335E+07,
2460854.500000000, A.D. 2025-Jun-28 00:00:00.0000, 1.583482674921543E+07, -5.059149203414150E+08, -2.013408588693076E+07,
2460861.500000000, A.D. 2025-Jul-05 00:00:00.0000, 2.513024563723843E+07, -5.041229475296155E+08, -2.072342603918615E+07,
2460868.500000000, A.D. 2025-Jul-12 00:00:00.0000, 3.441619063316836E+07, -5.021411918293580E+08, -2.130496138886726E+07,
2460875.500000000, A.D. 2025-Jul-19 00:00:00.0000, 4.368905545476132E+07, -4.999688158825185E+08, -2.187840564165705E+07,
2460882.500000000, A.D. 2025-Jul-26 00:00:00.0000, 5.294517753178019E+07, -4.976050331644145E+08, -2.244347043428069E+07,
2460889.500000000, A.D. 2025-Aug-02 00:00:00.0000, 6.218083751132941E+07, -4.950491101573739E+08, -2.299986538096654E+07,
2460896.500000000, A.D. 2025-Aug-09 00:00:00.0000, 7.139225879926674E+07, -4.923003687014967E+08, -2.354729813329244E+07,
2460903.500000000, A.D. 2025-Aug-16 00:00:00.0000, 8.057560721987504E+07, -4.893581885871011E+08, -2.408547446592677E+07,
2460910.500000000, A.D. 2025-Aug-23 00:00:00.0000, 8.972699109175192E+07, -4.862220103738623E+08, -2.461409841400006E+07,
2460917.500000000, A.D. 2025-Aug-30 00:00:00.0000, 9.884246205412309E+07, -4.828913377240707E+08, -2.513287243412748E+07,
2460924.500000000, A.D. 2025-Sep-06 00:00:00.0000, 1.079180152306321E+08, -4.793657382506089E+08, -2.564149737742087E+07,
2460931.500000000, A.D. 2025-Sep-13 00:00:00.0000, 1.169495870653578E+08, -4.756448453621281E+08, -2.613967232431445E+07,
2460938.500000000, A.D. 2025-Sep-20 00:00:00.0000, 1.259330541108923E+08, -4.717283627490358E+08, -2.662709471603900E+07,
2460945.500000000, A.D. 2025-Sep-27 00:00:00.0000, 1.348642338342677E+08, -4.676160683988970E+08, -2.710346062584767E+07,
2460952.500000000, A.D. 2025-Oct-04 00:00:00.0000, 1.437388854311391E+08, -4.633078176022691E+08, -2.756846494126850E+07,
2460959.500000000, A.D. 2025-Oct-11 00:00:00.0000, 1.525527102817483E+08, -4.588035458914870E+08, -2.802180150055018E+07,
2460966.500000000, A.D. 2025-Oct-18 00:00:00.0000, 1.613013523398010E+08, -4.541032721857307E+08, -2.846316323219040E+07,
2460973.500000000, A.D. 2025-Oct-25 00:00:00.0000, 1.699803986014847E+08, -4.492071021297294E+08, -2.889224230997470E+07,
2460980.500000000, A.D. 2025-Nov-01 00:00:00.0000, 1.785853797020026E+08, -4.441152316082554E+08, -2.930873032648006E+07,
2460987.500000000, A.D. 2025-Nov-08 00:00:00.0000, 1.871117706826089E+08, -4.388279504647388E+08, -2.971231849145561E+07,
2460994.500000000, A.D. 2025-Nov-15 00:00:00.0000, 1.955549920851485E+08, -4.333456464791948E+08, -3.010269787417209E+07,
2461001.500000000, A.D. 2025-Nov-22 00:00:00.0000, 2.039104117864177E+08, -4.276688093821963E+08, -3.047955970945698E+07,
2461008.500000000, A.D. 2025-Nov-29 00:00:00.0000, 2.121733474286835E+08, -4.217980337667870E+08, -3.084259566136381E+07,
2461015.500000000, A.D. 2025-Dec-06 00:00:00.0000, 2.203390671779551E+08, -4.157340210302132E+08, -3.119149784740055E+07,
2461022.500000000, A.D. 2025-Dec-13 00:00:00.0000, 2.284027892527475E+08, -4.094775837096270E+08, -3.152595893916705E+07,
2461029.500000000, A.D. 2025-Dec-20 00:00:00.0000, 2.363596837268166E+08, -4.030296511817717E+08, -3.184567257682645E+07,
2461036.500000000, A.D. 2025-Dec-27 00:00:00.0000, 2.442048755429333E+08, -3.963912741291549E+08, -3.215033378777266E+07,
2461043.500000000, A.D. 2026-Jan-03 00:00:00.0000, 2.519334472887931E+08, -3.895636283815227E+08, -3.243963932646790E+07,
2461050.500000000, A.D. 2026-Jan-10 00:00:00.0000, 2.595404418545082E+08, -3.825480188033960E+08, -3.271328800136986E+07,
2461057.500000000, A.D. 2026-Jan-17 00:00:00.0000, 2.670208652133425E+08, -3.753458833095163E+08, -3.297098101797938E+07,
2461064.500000000, A.D. 2026-Jan-24 00:00:00.0000, 2.743696894122226E+08, -3.679587969739300E+08, -3.321242234337084E+07,
2461071.500000000, A.D. 2026-Jan-31 00:00:00.0000, 2.815818558040468E+08, -3.603884762264225E+08, -3.343731909493606E+07,
2461078.500000000, A.D. 2026-Feb-07 00:00:00.0000, 2.886522785927066E+08, -3.526367831782436E+08, -3.364538196366599E+07,
2461085.500000000, A.D. 2026-Feb-14 00:00:00.0000, 2.955758489547748E+08, -3.447057300766470E+08, -3.383632569654986E+07,
2461092.500000000, A.D. 2026-Feb-21 00:00:00.0000, 3.023474401372542E+08, -3.365974832966651E+08, -3.400986962670147E+07,
2461099.500000000, A.D. 2026-Feb-28 00:00:00.0000, 3.089619124573050E+08, -3.283143657033815E+08, -3.416573805764054E+07,
2461106.500000000, A.D. 2026-Mar-07 00:00:00.0000, 3.154141161532315E+08, -3.198588593201663E+08, -3.430366047226717E+07,
2461113.500000000, A.D. 2026-Mar-14 00:00:00.0000, 3.216988948683071E+08, -3.112336106175879E+08, -3.442337201148616E+07,
2461120.500000000, A.D. 2026-Mar-21 00:00:00.0000, 3.278110915565510E+08, -3.024414355052140E+08, -3.452461414877045E+07,
2461127.500000000, A.D. 2026-Mar-28 00:00:00.0000, 3.337455548071258E+08, -2.934853229775525E+08, -3.460713529180586E+07,
2461134.500000000, A.D. 2026-Apr-04 00:00:00.0000, 3.394971449884104E+08, -2.843684383585882E+08, -3.467069133411486E+07,
2461141.500000000, A.D. 2026-Apr-11 00:00:00.0000, 3.450607404892007E+08, -2.750941264822713E+08, -3.471504621039793E+07,
2461148.500000000, A.D. 2026-Apr-18 00:00:00.0000, 3.504312442187499E+08, -2.656659147919399E+08, -3.473997246981177E+07,
2461155.500000000, A.D. 2026-Apr-25 00:00:00.0000, 3.556035904125844E+08, -2.560875163193419E+08, -3.474525186911391E+07,
2461162.500000000, A.D. 2026-May-02 00:00:00.0000, 3.605727517740439E+08, -2.463628325473000E+08, -3.473067598969494E+07,
2461169.500000000, A.D. 2026-May-09 00:00:00.0000, 3.653337470731462E+08, -2.364959561952412E+08, -3.469604689396164E+07,
2461176.500000000, A.D. 2026-May-16 00:00:00.0000, 3.698816495760885E+08, -2.264911737605343E+08, -3.464117784289248E+07,
2461183.500000000, A.D. 2026-May-23 00:00:00.0000, 3.742115963522238E+08, -2.163529667642618E+08, -3.456589399436787E+07,
2461190.500000000, A.D. 2026-May-30 00:00:00.0000, 3.783187963734732E+08, -2.060860113544042E+08, -3.447003286393341E+07,
2461197.500000000, A.D. 2026-Jun-06 00:00:00.0000, 3.821985370773706E+08, -1.956951795121623E+08, -3.435344478466728E+07,
2461204.500000000, A.D. 2026-Jun-13 00:00:00.0000, 3.858461930442560E+08, -1.851855416319382E+08, -3.421599368409907E+07,
2461211.500000000, A.D. 2026-Jun-20 00:00:00.0000, 3.892572362713267E+08, -1.745623675179999E+08, -3.405755789098127E+07,
2461218.500000000, A.D. 2026-Jun-27 00:00:00.0000, 3.924272463270999E+08, -1.638311261081266E+08, -3.387803084174735E+07,
2461225.500000000, A.D. 2026-Jul-04 00:00:00.0000, 3.953519203649037E+08, -1.529974846701576E+08, -3.367732174765196E+07,
2461232.500000000, A.D. 2026-Jul-11 00:00:00.0000, 3.980270832249232E+08, -1.420673075748172E+08, -3.345535625415155E+07,
2461239.500000000, A.D. 2026-Jul-18 00:00:00.0000, 4.004486976902364E+08, -1.310466545913521E+08, -3.321207709623315E+07,
2461246.500000000, A.D. 2026-Jul-25 00:00:00.0000, 4.026128748911815E+08, -1.199417786768313E+08, -3.294744474884142E+07,
2461253.500000000, A.D. 2026-Aug-01 00:00:00.0000, 4.045158848729262E+08, -1.087591232825991E+08, -3.266143807771659E+07,
2461260.500000000, A.D. 2026-Aug-08 00:00:00.0000, 4.061541675039644E+08, -9.750531919094126E+07, -3.235405501004377E+07,
2461267.500000000, A.D. 2026-Aug-15 00:00:00.0000, 4.075243440997193E+08, -8.618718040960805E+07, -3.202531322264568E+07,
2461274.500000000, A.D. 2026-Aug-22 00:00:00.0000, 4.086232289589985E+08, -7.481169788253249E+07, -3.167525067443964E+07,
2461281.500000000, A.D. 2026-Aug-29 00:00:00.0000, 4.094478384830160E+08, -6.338603237466443E+07, -3.130392588188979E+07,
$$EOE